OBJECT_NAME,OBJECT_ID,EPOCH,MEAN_MOTION,ECCENTRICITY,INCLINATION,RA_OF_ASC_NODE,ARG_OF_PERICENTER,MEAN_ANOMALY,EPHEMERIS_TYPE,CLASSIFICATION_TYPE,NORAD_CAT_ID,ELEMENT_SET_NO,REV_AT_EPOCH,BSTAR,MEAN_MOTION_DOT,MEAN_MOTION_DDOT
IRIDIUM 156,2018-061H,2026-07-20T19:34:30.399168,14.34217010,.0002184,86.3937,42.6613,93.6766,266.4680,0,U,43576,999,41819,.33365E-4,.113E-5,0
IRIDIUM 164,2018-061J,2026-07-20T12:25:14.511648,14.34217446,.0002231,86.3934,42.8267,88.6496,271.4955,0,U,43577,999,41819,-.19232E-4,-.34E-6,0
IRIDIUM 159,2018-061K,2026-07-20T20:01:54.458976,14.34217453,.0002104,86.3937,42.6302,87.0653,273.0784,0,U,43578,999,41820,-.61475E-5,.3E-7,0
IRIDIUM 180,2019-002A,2026-07-20T20:01:10.985952,14.34217094,.0002054,86.3994,339.5332,91.3572,268.7860,0,U,43922,999,39381,-.2933E-4,-.62E-6,0
IRIDIUM 176,2019-002B,2026-07-20T20:54:22.028256,14.72253852,.0002342,86.6119,339.4562,91.7892,268.3593,0,U,43923,999,40420,.7538E-4,.5E-5,0
IRIDIUM 168,2019-002C,2026-07-20T19:52:03.030240,14.34218191,.0002202,86.4001,339.6137,91.5112,268.6336,0,U,43924,999,39379,.51123E-4,.163E-5,0
IRIDIUM 173,2019-002D,2026-07-20T19:33:46.905408,14.34217843,.0002027,86.3993,339.5069,92.9705,267.1722,0,U,43925,999,39377,-.89452E-5,-.5E-7,0
IRIDIUM 169,2019-002E,2026-07-20T20:20:36.235104,14.38605095,.0002085,86.4228,11.1165,104.6927,255.4502,0,U,43926,999,39506,.47507E-4,.165E-5,0
IRIDIUM 172,2019-002F,2026-07-20T19:24:38.941056,14.34218145,.0002196,86.3998,339.5173,91.8491,268.2957,0,U,43927,999,39378,.18591E-4,.72E-6,0
IRIDIUM 175,2019-002G,2026-07-20T18:06:48.697920,14.43628987,.0005519,86.4505,276.4902,104.6951,255.4862,0,U,43928,999,40382,.4342E-4,.167E-5,0
IRIDIUM 171,2019-002H,2026-07-20T18:57:15.040224,14.34217288,.0002274,86.4007,339.8351,95.7058,264.4398,0,U,43929,999,39377,.59844E-5,.37E-6,0
IRIDIUM 170,2019-002J,2026-07-20T21:03:14.894208,14.72254419,.0002196,86.6118,339.4557,89.2238,270.9231,0,U,43930,999,40421,.74158E-4,.492E-5,0
IRIDIUM 167,2019-002K,2026-07-20T20:28:34.961088,14.34217572,.0002269,86.3993,339.5215,97.7331,262.4123,0,U,43931,999,39378,-.52434E-5,.5E-7,0
IRIDIUM 181,2023-068S,2026-07-20T19:12:46.815840,14.43308946,.0002358,86.4475,42.7328,83.8861,276.2608,0,U,56726,999,16728,.4588E-4,.175E-5,0
IRIDIUM 177,2023-068T,2026-07-20T18:55:45.507360,14.80029838,.0002236,86.1988,312.8397,97.8060,262.3414,0,U,56727,999,17133,.74499E-4,.59E-5,0
IRIDIUM 174,2023-068U,2026-07-20T20:45:17.722944,14.72259411,.0001941,86.6125,339.6116,93.0867,267.0572,0,U,56728,999,17097,.75045E-4,.498E-5,0
IRIDIUM 178,2023-068V,2026-07-20T20:17:18.530304,14.80021880,.000222,86.6542,11.2929,92.3465,267.8010,0,U,56729,999,17134,.14012E-4,.132E-5,0
IRIDIUM 179,2023-068W,2026-07-20T12:02:48.464448,14.80024138,.0002384,86.6770,20.5134,94.0769,266.0725,0,U,56730,999,17129,.16918417E-4,.154E-5,0
